{
  "type": "FeatureCollection",
  "features": [
    {
      "type": "Feature",
      "properties": {
        "norad_id": 44333,
        "name": "AT&T T-16",
        "group": "intelsat",
        "lat": -0.028701806331848077,
        "lon": -49.16737203251666,
        "alt_km": 35789.99390280637,
        "timestamp": "2025-12-17T21:39:45.376546+00:00",
        "meta_object_name": "AT&T T-16",
        "meta_object_id": "2019-034A",
        "meta_epoch": "2025-12-17T12:58:57.989280",
        "meta_mean_motion": 1.00269579,
        "meta_eccentricity": 7.793e-05,
        "meta_inclination": 0.0246,
        "meta_ra_of_asc_node": 64.4648,
        "meta_arg_of_pericenter": 67.2043,
        "meta_mean_anomaly": 48.6243,
        "meta_ephemeris_type": 0,
        "meta_classification_type": "U",
        "meta_norad_cat_id": 44333,
        "meta_element_set_no": 999,
        "meta_rev_at_epoch": 2381,
        "meta_bstar": 0,
        "meta_mean_motion_dot": -9e-07,
        "meta_mean_motion_ddot": 0,
        "tle_line1": "1 44333U 19034A   25351.54094895 -.00000090  00000+0  00000+0 0  9992",
        "tle_line2": "2 44333   0.0246  64.4648 0000779  67.2043  48.6243  1.00269579 23818"
      },
      "geometry": {
        "type": "Point",
        "coordinates": [
          -49.16737203251666,
          -0.028701806331848077
        ]
      }
    },
    {
      "type": "Feature",
      "properties": {
        "norad_id": 44476,
        "name": "INTELSAT 39 (IS-39)",
        "group": "intelsat",
        "lat": 0.0436160188896305,
        "lon": 113.62230522075636,
        "alt_km": 35781.46344511542,
        "timestamp": "2025-12-17T21:39:45.376556+00:00",
        "meta_object_name": "INTELSAT 39 (IS-39)",
        "meta_object_id": "2019-049B",
        "meta_epoch": "2025-12-17T15:07:16.808160",
        "meta_mean_motion": 1.00270101,
        "meta_eccentricity": 0.00012716,
        "meta_inclination": 0.0271,
        "meta_ra_of_asc_node": 350.8796,
        "meta_arg_of_pericenter": 141.7504,
        "meta_mean_anomaly": 242.623,
        "meta_ephemeris_type": 0,
        "meta_classification_type": "U",
        "meta_norad_cat_id": 44476,
        "meta_element_set_no": 999,
        "meta_rev_at_epoch": 2330,
        "meta_bstar": 0,
        "meta_mean_motion_dot": 0,
        "meta_mean_motion_ddot": 0,
        "tle_line1": "1 44476U 19049B   25351.63005565  .00000000  00000+0  00000+0 0  9992",
        "tle_line2": "2 44476   0.0271 350.8796 0001271 141.7504 242.6230  1.00270101 23307"
      },
      "geometry": {
        "type": "Point",
        "coordinates": [
          113.62230522075636,
          0.0436160188896305
        ]
      }
    },
    {
      "type": "Feature",
      "properties": {
        "norad_id": 46114,
        "name": "GALAXY 30 (G-30)",
        "group": "intelsat",
        "lat": -0.04014033237729049,
        "lon": -73.28665845280464,
        "alt_km": 35778.021542432696,
        "timestamp": "2025-12-17T21:39:45.376567+00:00",
        "meta_object_name": "GALAXY 30 (G-30)",
        "meta_object_id": "2020-056C",
        "meta_epoch": "2025-12-16T10:32:38.625216",
        "meta_mean_motion": 1.00271809,
        "meta_eccentricity": 0.00020504,
        "meta_inclination": 0.0174,
        "meta_ra_of_asc_node": 8.9673,
        "meta_arg_of_pericenter": 254.0657,
        "meta_mean_anomaly": 215.4609,
        "meta_ephemeris_type": 0,
        "meta_classification_type": "U",
        "meta_norad_cat_id": 46114,
        "meta_element_set_no": 999,
        "meta_rev_at_epoch": 1946,
        "meta_bstar": 0,
        "meta_mean_motion_dot": 6e-07,
        "meta_mean_motion_ddot": 0,
        "tle_line1": "1 46114U 20056C   25350.43933594  .00000060  00000+0  00000+0 0  9998",
        "tle_line2": "2 46114   0.0174   8.9673 0002050 254.0657 215.4609  1.00271809 19464"
      },
      "geometry": {
        "type": "Point",
        "coordinates": [
          -73.28665845280464,
          -0.04014033237729049
        ]
      }
    },
    {
      "type": "Feature",
      "properties": {
        "norad_id": 54026,
        "name": "GALAXY 33 (G-33)",
        "group": "intelsat",
        "lat": -0.03903724789689466,
        "lon": -81.27678533361542,
        "alt_km": 35778.53902466558,
        "timestamp": "2025-12-17T21:39:45.376577+00:00",
        "meta_object_name": "GALAXY 33 (G-33)",
        "meta_object_id": "2022-128A",
        "meta_epoch": "2025-12-17T14:24:23.836032",
        "meta_mean_motion": 1.00273632,
        "meta_eccentricity": 0.00017344,
        "meta_inclination": 0.0151,
        "meta_ra_of_asc_node": 4.8133,
        "meta_arg_of_pericenter": 256.2811,
        "meta_mean_anomaly": 268.4949,
        "meta_ephemeris_type": 0,
        "meta_classification_type": "U",
        "meta_norad_cat_id": 54026,
        "meta_element_set_no": 999,
        "meta_rev_at_epoch": 1192,
        "meta_bstar": 0,
        "meta_mean_motion_dot": 1.03e-06,
        "meta_mean_motion_ddot": 0,
        "tle_line1": "1 54026U 22128A   25351.60027588  .00000103  00000+0  00000+0 0  9996",
        "tle_line2": "2 54026   0.0151   4.8133 0001734 256.2811 268.4949  1.00273632 11924"
      },
      "geometry": {
        "type": "Point",
        "coordinates": [
          -81.27678533361542,
          -0.03903724789689466
        ]
      }
    },
    {
      "type": "Feature",
      "properties": {
        "norad_id": 54027,
        "name": "GALAXY 34 (G-34)",
        "group": "intelsat",
        "lat": -0.040351081570048394,
        "lon": -77.21897395552553,
        "alt_km": 35780.41429687006,
        "timestamp": "2025-12-17T21:39:45.376588+00:00",
        "meta_object_name": "GALAXY 34 (G-34)",
        "meta_object_id": "2022-128B",
        "meta_epoch": "2025-12-16T10:54:44.613792",
        "meta_mean_motion": 1.00271358,
        "meta_eccentricity": 0.00014405,
        "meta_inclination": 0.0238,
        "meta_ra_of_asc_node": 335.9527,
        "meta_arg_of_pericenter": 285.2083,
        "meta_mean_anomaly": 218.9464,
        "meta_ephemeris_type": 0,
        "meta_classification_type": "U",
        "meta_norad_cat_id": 54027,
        "meta_element_set_no": 999,
        "meta_rev_at_epoch": 1208,
        "meta_bstar": 0,
        "meta_mean_motion_dot": 0,
        "meta_mean_motion_ddot": 0,
        "tle_line1": "1 54027U 22128B   25350.45468303  .00000000  00000+0  00000+0 0  9999",
        "tle_line2": "2 54027   0.0238 335.9527 0001440 285.2083 218.9464  1.00271358 12086"
      },
      "geometry": {
        "type": "Point",
        "coordinates": [
          -77.21897395552553,
          -0.040351081570048394
        ]
      }
    },
    {
      "type": "Feature",
      "properties": {
        "norad_id": 54243,
        "name": "GALAXY 31 (G-31)",
        "group": "intelsat",
        "lat": -0.03713135853591158,
        "lon": -69.29889714474407,
        "alt_km": 35779.858133958514,
        "timestamp": "2025-12-17T21:39:45.376599+00:00",
        "meta_object_name": "GALAXY 31 (G-31)",
        "meta_object_id": "2022-153A",
        "meta_epoch": "2025-12-17T12:45:03.348864",
        "meta_mean_motion": 1.00271956,
        "meta_eccentricity": 0.00014751,
        "meta_inclination": 0.0187,
        "meta_ra_of_asc_node": 29.3254,
        "meta_arg_of_pericenter": 252.3101,
        "meta_mean_anomaly": 235.0334,
        "meta_ephemeris_type": 0,
        "meta_classification_type": "U",
        "meta_norad_cat_id": 54243,
        "meta_element_set_no": 999,
        "meta_rev_at_epoch": 531,
        "meta_bstar": 0,
        "meta_mean_motion_dot": 0,
        "meta_mean_motion_ddot": 0,
        "tle_line1": "1 54243U 22153A   25351.53128876  .00000000  00000+0  00000+0 0  9995",
        "tle_line2": "2 54243   0.0187  29.3254 0001475 252.3101 235.0334  1.00271956  5312"
      },
      "geometry": {
        "type": "Point",
        "coordinates": [
          -69.29889714474407,
          -0.03713135853591158
        ]
      }
    },
    {
      "type": "Feature",
      "properties": {
        "norad_id": 54244,
        "name": "GALAXY 32 (G-32)",
        "group": "intelsat",
        "lat": -0.012792437379509403,
        "lon": -39.299752561923704,
        "alt_km": 35775.30567706993,
        "timestamp": "2025-12-17T21:39:45.376609+00:00",
        "meta_object_name": "GALAXY 32 (G-32)",
        "meta_object_id": "2022-153B",
        "meta_epoch": "2025-12-17T04:19:59.261664",
        "meta_mean_motion": 1.00271531,
        "meta_eccentricity": 0.000259,
        "meta_inclination": 0.0104,
        "meta_ra_of_asc_node": 339.7375,
        "meta_arg_of_pericenter": 338.8221,
        "meta_mean_anomaly": 101.4983,
        "meta_ephemeris_type": 0,
        "meta_classification_type": "U",
        "meta_norad_cat_id": 54244,
        "meta_element_set_no": 999,
        "meta_rev_at_epoch": 1131,
        "meta_bstar": 0,
        "meta_mean_motion_dot": -1.5e-06,
        "meta_mean_motion_ddot": 0,
        "tle_line1": "1 54244U 22153B   25351.18054701 -.00000150  00000+0  00000+0 0  9999",
        "tle_line2": "2 54244   0.0104 339.7375 0002590 338.8221 101.4983  1.00271531 11318"
      },
      "geometry": {
        "type": "Point",
        "coordinates": [
          -39.299752561923704,
          -0.012792437379509403
        ]
      }
    }
  ]
}